{
  "type": "FeatureCollection",
  "features": [
    {
      "type": "Feature",
      "properties": {
        "norad_id": 64694,
        "name": "GOSAT-GW (IBUKI GW)",
        "group": "resource",
        "lat": 37.56701999548481,
        "lon": 117.53658564261187,
        "alt_km": 665.6165206514652,
        "timestamp": "2025-12-21T22:41:41.105635+00:00",
        "meta_object_name": "GOSAT-GW (IBUKI GW)",
        "meta_object_id": "2025-141A",
        "meta_epoch": "2025-12-21T13:52:07.280256",
        "meta_mean_motion": 14.6756154,
        "meta_eccentricity": 0.00014315,
        "meta_inclination": 98.0436,
        "meta_ra_of_asc_node": 290.931,
        "meta_arg_of_pericenter": 84.3373,
        "meta_mean_anomaly": 275.7995,
        "meta_ephemeris_type": 0,
        "meta_classification_type": "U",
        "meta_norad_cat_id": 64694,
        "meta_element_set_no": 999,
        "meta_rev_at_epoch": 2579,
        "meta_bstar": 0.00020273283,
        "meta_mean_motion_dot": 1.103e-05,
        "meta_mean_motion_ddot": 0,
        "tle_line1": "1 64694U 25141A   25355.57786204  .00001103  00000+0  20273-3 0  9992",
        "tle_line2": "2 64694  98.0436 290.9310 0001431  84.3373 275.7995 14.67561540 25798"
      },
      "geometry": {
        "type": "Point",
        "coordinates": [
          117.53658564261187,
          37.56701999548481
        ]
      }
    },
    {
      "type": "Feature",
      "properties": {
        "norad_id": 64876,
        "name": "IONOSFERA-M 3",
        "group": "resource",
        "lat": 57.30057576460045,
        "lon": -56.049324822161054,
        "alt_km": 813.554190681938,
        "timestamp": "2025-12-21T22:41:41.105646+00:00",
        "meta_object_name": "IONOSFERA-M 3",
        "meta_object_id": "2025-155A",
        "meta_epoch": "2025-12-21T13:58:28.280928",
        "meta_mean_motion": 14.2144303,
        "meta_eccentricity": 0.000198,
        "meta_inclination": 98.5795,
        "meta_ra_of_asc_node": 317.1986,
        "meta_arg_of_pericenter": 45.6577,
        "meta_mean_anomaly": 314.4763,
        "meta_ephemeris_type": 0,
        "meta_classification_type": "U",
        "meta_norad_cat_id": 64876,
        "meta_element_set_no": 999,
        "meta_rev_at_epoch": 2117,
        "meta_bstar": 4.5074788e-05,
        "meta_mean_motion_dot": 5.6e-07,
        "meta_mean_motion_ddot": 0,
        "tle_line1": "1 64876U 25155A   25355.58227177  .00000056  00000+0  45075-4 0  9993",
        "tle_line2": "2 64876  98.5795 317.1986 0001980  45.6577 314.4763 14.21443030 21174"
      },
      "geometry": {
        "type": "Point",
        "coordinates": [
          -56.049324822161054,
          57.30057576460045
        ]
      }
    },
    {
      "type": "Feature",
      "properties": {
        "norad_id": 64877,
        "name": "IONOSFERA-M 4",
        "group": "resource",
        "lat": -58.07794536285128,
        "lon": 123.44711936378562,
        "alt_km": 828.5372408196754,
        "timestamp": "2025-12-21T22:41:41.105656+00:00",
        "meta_object_name": "IONOSFERA-M 4",
        "meta_object_id": "2025-155B",
        "meta_epoch": "2025-12-21T14:48:57.407040",
        "meta_mean_motion": 14.21444158,
        "meta_eccentricity": 0.00013836,
        "meta_inclination": 98.5794,
        "meta_ra_of_asc_node": 317.152,
        "meta_arg_of_pericenter": 54.8444,
        "meta_mean_anomaly": 305.2863,
        "meta_ephemeris_type": 0,
        "meta_classification_type": "U",
        "meta_norad_cat_id": 64877,
        "meta_element_set_no": 999,
        "meta_rev_at_epoch": 2117,
        "meta_bstar": 4.0862475e-05,
        "meta_mean_motion_dot": 4.7e-07,
        "meta_mean_motion_ddot": 0,
        "tle_line1": "1 64877U 25155B   25355.61733110  .00000047  00000+0  40862-4 0  9996",
        "tle_line2": "2 64877  98.5794 317.1520 0001383  54.8444 305.2863 14.21444158 21171"
      },
      "geometry": {
        "type": "Point",
        "coordinates": [
          123.44711936378562,
          -58.07794536285128
        ]
      }
    },
    {
      "type": "Feature",
      "properties": {
        "norad_id": 64899,
        "name": "MICROCARB",
        "group": "resource",
        "lat": -81.88261339354855,
        "lon": 170.67054791960996,
        "alt_km": 672.675845891582,
        "timestamp": "2025-12-21T22:41:41.105667+00:00",
        "meta_object_name": "MICROCARB",
        "meta_object_id": "2025-156A",
        "meta_epoch": "2025-12-21T05:09:56.513088",
        "meta_mean_motion": 14.72069919,
        "meta_eccentricity": 0.0017535,
        "meta_inclination": 98.0016,
        "meta_ra_of_asc_node": 70.4245,
        "meta_arg_of_pericenter": 119.2699,
        "meta_mean_anomaly": 241.0264,
        "meta_ephemeris_type": 0,
        "meta_classification_type": "U",
        "meta_norad_cat_id": 64899,
        "meta_element_set_no": 999,
        "meta_rev_at_epoch": 2178,
        "meta_bstar": 9.7829e-05,
        "meta_mean_motion_dot": 5.67e-06,
        "meta_mean_motion_ddot": 0,
        "tle_line1": "1 64899U 25156A   25355.21523742  .00000567  00000+0  97829-4 0  9997",
        "tle_line2": "2 64899  98.0016  70.4245 0017535 119.2699 241.0264 14.72069919 21787"
      },
      "geometry": {
        "type": "Point",
        "coordinates": [
          170.67054791960996,
          -81.88261339354855
        ]
      }
    },
    {
      "type": "Feature",
      "properties": {
        "norad_id": 64900,
        "name": "CO3D 3",
        "group": "resource",
        "lat": 75.33929509115082,
        "lon": -77.87773736009996,
        "alt_km": 497.32128339344126,
        "timestamp": "2025-12-21T22:41:41.105677+00:00",
        "meta_object_name": "CO3D 3",
        "meta_object_id": "2025-156B",
        "meta_epoch": "2025-12-21T14:20:46.343040",
        "meta_mean_motion": 15.20197765,
        "meta_eccentricity": 0.00012169,
        "meta_inclination": 97.4337,
        "meta_ra_of_asc_node": 71.84,
        "meta_arg_of_pericenter": 81.5849,
        "meta_mean_anomaly": 278.5524,
        "meta_ephemeris_type": 0,
        "meta_classification_type": "U",
        "meta_norad_cat_id": 64900,
        "meta_element_set_no": 999,
        "meta_rev_at_epoch": 2255,
        "meta_bstar": 0.00020937567,
        "meta_mean_motion_dot": 4.467e-05,
        "meta_mean_motion_ddot": 0,
        "tle_line1": "1 64900U 25156B   25355.59775860  .00004467  00000+0  20938-3 0  9990",
        "tle_line2": "2 64900  97.4337  71.8400 0001216  81.5849 278.5524 15.20197765 22559"
      },
      "geometry": {
        "type": "Point",
        "coordinates": [
          -77.87773736009996,
          75.33929509115082
        ]
      }
    },
    {
      "type": "Feature",
      "properties": {
        "norad_id": 64901,
        "name": "CO3D 4",
        "group": "resource",
        "lat": 76.09217353110948,
        "lon": -75.99470827600065,
        "alt_km": 497.6462187502948,
        "timestamp": "2025-12-21T22:41:41.105688+00:00",
        "meta_object_name": "CO3D 4",
        "meta_object_id": "2025-156C",
        "meta_epoch": "2025-12-21T14:20:59.957088",
        "meta_mean_motion": 15.20203773,
        "meta_eccentricity": 0.00012782,
        "meta_inclination": 97.4341,
        "meta_ra_of_asc_node": 71.8384,
        "meta_arg_of_pericenter": 166.8206,
        "meta_mean_anomaly": 193.3063,
        "meta_ephemeris_type": 0,
        "meta_classification_type": "U",
        "meta_norad_cat_id": 64901,
        "meta_element_set_no": 999,
        "meta_rev_at_epoch": 2255,
        "meta_bstar": 0.00020450043,
        "meta_mean_motion_dot": 4.362e-05,
        "meta_mean_motion_ddot": 0,
        "tle_line1": "1 64901U 25156C   25355.59791617  .00004362  00000+0  20450-3 0  9992",
        "tle_line2": "2 64901  97.4341  71.8384 0001278 166.8206 193.3063 15.20203773 22557"
      },
      "geometry": {
        "type": "Point",
        "coordinates": [
          -75.99470827600065,
          76.09217353110948
        ]
      }
    },
    {
      "type": "Feature",
      "properties": {
        "norad_id": 64902,
        "name": "CO3D 2",
        "group": "resource",
        "lat": -74.04561565713492,
        "lon": 99.25708161962798,
        "alt_km": 513.0613492658704,
        "timestamp": "2025-12-21T22:41:41.105697+00:00",
        "meta_object_name": "CO3D 2",
        "meta_object_id": "2025-156D",
        "meta_epoch": "2025-12-21T13:32:58.153344",
        "meta_mean_motion": 15.20196251,
        "meta_eccentricity": 8.247e-05,
        "meta_inclination": 97.4341,
        "meta_ra_of_asc_node": 71.7048,
        "meta_arg_of_pericenter": 74.4458,
        "meta_mean_anomaly": 285.6869,
        "meta_ephemeris_type": 0,
        "meta_classification_type": "U",
        "meta_norad_cat_id": 64902,
        "meta_element_set_no": 999,
        "meta_rev_at_epoch": 2254,
        "meta_bstar": 0.00013548973,
        "meta_mean_motion_dot": 2.866e-05,
        "meta_mean_motion_ddot": 0,
        "tle_line1": "1 64902U 25156D   25355.56456196  .00002866  00000+0  13549-3 0  9998",
        "tle_line2": "2 64902  97.4341  71.7048 0000824  74.4458 285.6869 15.20196251 22543"
      },
      "geometry": {
        "type": "Point",
        "coordinates": [
          99.25708161962798,
          -74.04561565713492
        ]
      }
    }
  ]
}